OBJECT_NAME,OBJECT_ID,EPOCH,MEAN_MOTION,ECCENTRICITY,INCLINATION,RA_OF_ASC_NODE,ARG_OF_PERICENTER,MEAN_ANOMALY,EPHEMERIS_TYPE,CLASSIFICATION_TYPE,NORAD_CAT_ID,ELEMENT_SET_NO,REV_AT_EPOCH,BSTAR,MEAN_MOTION_DOT,MEAN_MOTION_DDOT
STARLINK-11637 [DTC],2025-048H,2026-06-21T22:43:15.080448,15.70916220,.00027784,43.0000,51.8663,261.9020,98.1533,0,U,63190,999,7491,.14059339E-2,.184619E-2,0
STARLINK-11647 [DTC],2025-048J,2026-06-22T08:29:22.938144,15.70998869,.00045384,42.9988,48.8789,64.0996,296.0339,0,U,63191,999,7498,.10808963E-2,.14163E-2,0
STARLINK-11643 [DTC],2025-048K,2026-06-22T08:44:38.253696,15.71077019,.00021676,42.9999,48.9631,295.1794,64.8849,0,U,63192,999,7498,.15592637E-2,.206736E-2,0
STARLINK-11635 [DTC],2025-048L,2026-06-22T17:23:24.350496,15.70936401,.00026091,43.0002,46.4923,265.4630,94.5940,0,U,63193,999,7504,.15929986E-2,.210064E-2,0
STARLINK-11636 [DTC],2025-048M,2026-06-22T08:59:55.875264,15.70896677,.00006692,43.0000,49.0482,310.5730,49.5080,0,U,63194,999,7498,.16688497E-2,.219976E-2,0
STARLINK-11631 [DTC],2025-048N,2026-06-22T20:11:25.214784,15.70857955,.00019993,43.0010,46.5346,270.0184,90.0455,0,U,63195,999,7505,.53545791E-3,.68884E-3,0
STARLINK-32946,2025-048P,2026-06-22T11:40:01.339968,15.27586783,.00014193,43.0013,217.4930,274.6981,85.3709,0,U,63196,999,7307,.36163464E-3,.9704E-4,0
STARLINK-32960,2025-048Q,2026-06-22T09:29:32.587584,15.27583627,.00017152,42.9969,214.1584,269.5452,90.5204,0,U,63197,999,7310,.30525176E-3,.8148E-4,0
STARLINK-32904,2025-048R,2026-06-22T13:16:30.050976,15.27586260,.00012303,43.0011,212.7586,271.7309,88.3402,0,U,63198,999,7313,.28010066E-3,.7455E-4,0
STARLINK-32931,2025-048S,2026-06-22T09:09:10.816416,15.27578074,.00016772,42.9993,214.0541,266.2153,93.8507,0,U,63199,999,7310,.24428989E-4,.41E-5,0
STARLINK-32934,2025-048T,2026-06-22T13:25:46.519680,15.27601182,.00013281,43.0047,212.8136,246.8069,113.2643,0,U,63200,999,7313,.43195697E-3,.11651E-3,0
STARLINK-32938,2025-048U,2026-06-22T09:14:44.449152,15.27586088,.00017112,43.0008,214.0819,275.6559,84.4098,0,U,63201,999,7310,.33498324E-3,.8969E-4,0
STARLINK-32935,2025-048V,2026-06-22T11:20:21.480576,15.27584848,.00016906,43.0001,213.8797,278.1089,81.9571,0,U,63202,999,7311,.48550252E-3,.13124E-3,0
STARLINK-32930,2025-048W,2026-06-22T11:14:47.944608,15.27588625,.0001611,42.9993,213.8420,273.1436,86.9232,0,U,63203,999,7311,.49641097E-3,.13427E-3,0
STARLINK-11654 [DTC],2025-053A,2026-06-22T11:58:01.151616,15.70835924,.00013551,43.0000,200.4369,270.9047,89.1665,0,U,63265,999,7415,.10316471E-2,.134057E-2,0
STARLINK-11659 [DTC],2025-053B,2026-06-22T10:18:48.446496,15.70933041,.00029697,43.0003,200.7773,256.9812,103.0724,0,U,63266,999,7414,.1434999E-2,.188675E-2,0
STARLINK-11653 [DTC],2025-053C,2026-06-22T10:57:02.510784,15.70989661,.00022853,43.0008,200.9898,277.8076,82.2532,0,U,63267,999,7414,.14608065E-2,.192614E-2,0
STARLINK-11641 [DTC],2025-053D,2026-06-22T12:59:00.320352,15.70877216,.0001511,43.0016,199.8829,352.8740,7.2106,0,U,63268,999,7416,.11306241E-2,.147457E-2,0
STARLINK-11638 [DTC],2025-053E,2026-06-22T13:06:38.438208,15.70864159,.00014653,43.0006,199.9246,260.9381,99.1321,0,U,63269,999,7416,.10394548E-2,.135256E-2,0
STARLINK-11614 [DTC],2025-053F,2026-06-22T12:20:57.175296,15.70947440,.00022319,42.9999,200.5671,257.5514,102.5104,0,U,63270,999,7415,.14335738E-2,.188587E-2,0
STARLINK-11620 [DTC],2025-053G,2026-06-22T12:43:53.170464,15.70850520,.00022911,43.0008,200.6949,260.3053,99.7556,0,U,63271,999,7415,.13147652E-2,.171869E-2,0
STARLINK-11619 [DTC],2025-053H,2026-06-22T12:05:39.723936,15.70863805,.0001647,43.0011,200.4808,263.1460,96.9220,0,U,63272,999,7415,.9586886E-3,.124549E-2,0
STARLINK-11621 [DTC],2025-053J,2026-06-22T11:19:47.742240,15.70898163,.00011796,43.0001,200.2230,306.7494,53.3265,0,U,63273,999,7415,.12587554E-2,.164707E-2,0
STARLINK-11615 [DTC],2025-053K,2026-06-22T12:13:18.435360,15.70883753,.0002622,43.0020,200.5277,277.4482,82.6088,0,U,63274,999,7415,.1547368E-2,.203418E-2,0
STARLINK-11608 [DTC],2025-053L,2026-06-22T13:14:17.208384,15.70860415,.000148,43.0004,199.9720,259.1713,100.8989,0,U,63275,999,7415,.11175274E-2,.145608E-2,0
STARLINK-11623 [DTC],2025-053M,2026-06-22T12:36:15.102720,15.70874102,.00014621,43.0016,200.6534,312.3986,47.6757,0,U,63276,999,7414,.11182663E-2,.145792E-2,0
STARLINK-33660,2025-053P,2026-06-22T14:09:50.656032,15.27569883,.0001746,43.0049,9.6133,266.2902,93.7750,0,U,63278,999,7223,.85183489E-3,.23245E-3,0
STARLINK-33611,2025-053Q,2026-06-22T13:22:25.603392,15.27584921,.0001064,42.9979,5.9006,269.0327,91.0402,0,U,63279,999,7238,.35218681E-3,.9443E-4,0
STARLINK-33646,2025-053R,2026-06-22T13:18:01.912320,15.27588886,.00033555,43.0042,9.3394,275.8347,84.2122,0,U,63280,999,7223,.46588598E-3,.12584E-3,0
STARLINK-33665,2025-053S,2026-06-22T14:20:44.159712,15.27583973,.00009994,43.0015,8.7977,242.7969,117.2781,0,U,63281,999,7224,.54404975E-3,.14741E-3,0
STARLINK-33603,2025-053T,2026-06-22T14:15:23.544000,15.27590204,.00008859,43.0002,9.6236,253.8025,106.2729,0,U,63282,999,7223,.48649545E-3,.13153E-3,0
STARLINK-33669,2025-053U,2026-06-22T12:57:40.863456,15.27584208,.00010446,43.0033,9.2275,239.5799,120.4950,0,U,63283,999,7223,.75762828E-3,.20647E-3,0
STARLINK-33673,2025-053V,2026-06-22T05:52:29.014464,15.27588096,.00008923,43.0024,3.5144,274.8002,85.2748,0,U,63284,999,7238,.29872859E-3,.7969E-4,0
STARLINK-33662,2025-053W,2026-06-22T05:38:20.848128,15.27594070,.00022756,43.0003,11.2430,272.4314,87.6277,0,U,63285,999,7218,.57945322E-3,.15724E-3,0
STARLINK-33613,2025-053X,2026-06-22T06:09:48.562848,15.27615010,.00022077,43.0037,11.4113,274.7942,85.2657,0,U,63286,999,7218,.76722508E-3,.20933E-3,0
STARLINK-33680,2025-053Y,2026-06-22T13:06:56.854368,15.27606981,.00024847,43.0020,9.2791,261.9889,98.0681,0,U,63287,999,7228,.92885842E-3,.25408E-3,0
STARLINK-11568 [DTC],2025-057A,2026-06-22T13:16:53.649408,15.70836913,.0002791,43.0014,352.1193,278.4902,81.5650,0,U,63307,999,7367,.10617928E-2,.138074E-2,0
STARLINK-11575 [DTC],2025-057B,2026-06-22T04:45:45.958176,15.70880611,.00021814,42.9986,354.6328,283.5805,76.4820,0,U,63308,999,7361,.10495648E-2,.1367E-2,0
STARLINK-11585 [DTC],2025-057C,2026-06-21T22:16:35.482080,15.70855995,.00011985,42.9981,356.0378,278.4299,81.6433,0,U,63309,999,7360,.83040554E-3,.107564E-2,0
STARLINK-11587 [DTC],2025-057D,2026-06-22T19:00:22.703616,15.70868617,.00036862,43.0003,351.3534,297.1426,62.9066,0,U,63310,999,7370,.12348339E-2,.161337E-2,0
STARLINK-11589 [DTC],2025-057E,2026-06-22T16:04:54.347808,15.70857154,.00021623,43.0023,352.1614,241.6787,118.3863,0,U,63311,999,7368,.52683722E-3,.67757E-3,0
STARLINK-11650 [DTC],2025-057F,2026-06-22T20:00:01.999872,15.70862058,.00016283,43.0001,350.9687,270.1414,19.4185,0,U,63312,999,602,-.64629615E-3,-.82636E-3,0
STARLINK-11648 [DTC],2025-057G,2026-06-22T12:38:51.073728,15.71107155,.00028207,43.0005,352.8005,262.6650,97.3898,0,U,63313,999,7366,.13601915E-2,.179938E-2,0
STARLINK-11640 [DTC],2025-057H,2026-06-22T04:53:23.247456,15.70948868,.00009329,43.0021,354.6702,283.3385,76.7379,0,U,63314,999,7361,.10668533E-2,.139397E-2,0
STARLINK-11652 [DTC],2025-057J,2026-06-22T13:47:28.508928,15.70850004,.00043645,43.0009,352.2877,293.5698,66.4711,0,U,63315,999,7370,.11029278E-2,.143653E-2,0
STARLINK-11645 [DTC],2025-057K,2026-06-22T20:24:17.841600,15.70890750,.00017395,42.9998,350.9239,276.9020,83.1650,0,U,63316,999,7374,.12984739E-2,.169977E-2,0
STARLINK-11633 [DTC],2025-057L,2026-06-22T13:09:14.808384,15.70992578,.00026602,43.0003,352.0705,250.1844,109.8737,0,U,63317,999,7367,.18660631E-2,.247865E-2,0
STARLINK-11593 [DTC],2025-057M,2026-06-22T13:24:32.197536,15.70978116,.00025038,42.9996,352.1588,257.5965,102.4623,0,U,63318,999,7370,.18873321E-2,.250624E-2,0
STARLINK-11588 [DTC],2025-057N,2026-06-22T13:39:49.869216,15.70850751,.00034462,43.0004,352.2419,290.0758,69.9739,0,U,63319,999,7367,.12683104E-2,.165679E-2,0
STARLINK-33671,2025-057P,2026-06-22T15:45:02.313792,15.27592557,.00018507,43.0013,147.4215,282.6847,77.3797,0,U,63320,999,7195,.55186605E-3,.14961E-3,0
STARLINK-33650,2025-057Q,2026-06-22T15:48:29.676384,15.27594487,.00018481,42.9952,157.8186,269.9889,90.0750,0,U,63321,999,7179,.49380635E-3,.13357E-3,0
STARLINK-33689,2025-057R,2026-06-22T15:37:23.556576,15.27589529,.00011127,42.9982,157.7552,276.1533,83.9192,0,U,63322,999,7183,.28321118E-3,.7542E-4,0
STARLINK-33607,2025-057S,2026-06-22T16:08:53.092608,15.27588636,.0001871,43.0016,157.9338,289.2457,70.8192,0,U,63323,999,7179,.64343629E-3,.17491E-3,0
STARLINK-33619,2025-057T,2026-06-22T15:24:26.416224,15.27595097,.00018061,42.9980,157.6862,274.5359,85.5286,0,U,63324,999,7183,.66794143E-3,.18172E-3,0
STARLINK-33612,2025-057U,2026-06-22T07:19:04.142784,15.27591335,.00016283,42.9988,160.3217,268.1077,91.9588,0,U,63325,999,7177,.41053745E-3,.11056E-3,0
STARLINK-33672,2025-057V,2026-06-22T15:46:39.239040,15.27571003,.00005669,42.9991,157.7902,297.2717,62.8077,0,U,63326,999,7183,.1343992E-3,.3437E-4,0
STARLINK-33625,2025-057W,2026-06-22T10:15:36.799200,15.27596243,.00013701,42.9982,151.7394,268.3779,91.6916,0,U,63327,999,7188,.43682559E-3,.11784E-3,0
STARLINK-33699,2025-057X,2026-06-22T06:50:38.944608,15.27577553,.00013859,42.9991,152.3834,268.1251,91.9442,0,U,63328,999,7182,.22430568E-3,.5915E-4,0
STARLINK-33674,2025-057Y,2026-06-22T16:19:57.653760,15.27579385,.00013744,43.0031,157.9855,268.1401,91.9294,0,U,63329,999,7183,.55673508E-3,.15089E-3,0
STARLINK-32840,2025-063A,2026-06-22T17:47:33.766656,15.34406232,.00009555,53.1594,280.9581,94.5264,265.5848,0,U,63363,999,7087,.56217946E-3,.18669E-3,0
STARLINK-32543,2025-063B,2026-06-22T18:14:49.882848,15.34402931,.0001185,53.1596,281.0701,86.8969,273.2170,0,U,63364,999,7088,.86221257E-3,.2887E-3,0
STARLINK-33741,2025-063C,2026-06-22T14:15:51.779520,15.34391258,.00011478,53.1576,282.1571,91.7019,268.4115,0,U,63365,999,7086,.8079232E-3,.27012E-3,0
